{
  "last_updated": "2025-12-12T06:00:02.749630",
  "satellites": {
    "98592": {
      "name": "DUTHSat-2",
      "norad_id": "98592",
      "tle": "1 64530U 25135C   25345.84732309  .00014512  00000-0  64639-3 0  9993\n2 64530  97.4498  97.7861 0005861 120.0305 240.1513 15.21534399 26398",
      "epoch": "2025-12-11T20:20:08.714976",
      "fetched_at": "2025-12-12T06:00:02.850468",
      "source": "satnogs"
    },
    "98530": {
      "name": "LAMARR",
      "norad_id": "98530",
      "tle": "1 98530U          25345.02919561 +.00028511 +00000+0 +14499-2 0 00218\n2 98530  97.4372  56.8054 0006198 318.0264  42.0494 15.16788281001860",
      "epoch": "2025-12-11T00:42:02.500704",
      "fetched_at": "2025-12-12T06:00:02.888217",
      "source": "satnogs"
    },
    "98529": {
      "name": "DIRAC",
      "norad_id": "98529",
      "tle": "1 98529U          25344.96129959 +.00025206 +00000+0 +12741-2 0 00173\n2 98529  97.4346  56.7394 0005364 324.8170  35.2709 15.17030842001856",
      "epoch": "2025-12-10T23:04:16.284576",
      "fetched_at": "2025-12-12T06:00:02.937266",
      "source": "satnogs"
    },
    "98518": {
      "name": "MICE-1",
      "norad_id": "98518",
      "tle": "1 98518C 25276Z   25332.82022451 -.00006635  00000+0 -34088-3 0    02\n2 98518  97.4521  44.8306 0005282 340.9975   7.9865 15.16561278    18",
      "epoch": "2025-11-28T19:41:07.397664",
      "fetched_at": "2025-12-12T06:00:02.974349",
      "source": "satnogs"
    }
  },
  "fetch_log": [
    {
      "norad_id": "98592",
      "name": "DUTHSat-2",
      "status": "success",
      "source": "satnogs",
      "timestamp": "2025-12-12T06:00:02.850471"
    },
    {
      "norad_id": "98530",
      "name": "LAMARR",
      "status": "success",
      "source": "satnogs",
      "timestamp": "2025-12-12T06:00:02.888221"
    },
    {
      "norad_id": "98529",
      "name": "DIRAC",
      "status": "success",
      "source": "satnogs",
      "timestamp": "2025-12-12T06:00:02.937268"
    },
    {
      "norad_id": "98518",
      "name": "MICE-1",
      "status": "success",
      "source": "satnogs",
      "timestamp": "2025-12-12T06:00:02.974359"
    }
  ]
}